STARLINK-33998          
1 63951U 25098AB  26068.88478794 -.00002105  00000+0 -16876-3 0  9995
2 63951  70.0003 273.8837 0002801 263.9034  96.1806 14.98318546 46584
ION SCV-022             
1 66682U 25276S   26068.74520243  .00001950  00000+0  17277-3 0  9990
2 66682  97.5376 142.9780 0004539 154.7099 205.4346 14.97347265 15192
